{"type": "FeatureCollection", "features": [ {"type": "Feature", "properties": {"norad_id": 57401, "name": "TIANMU-1 09", "group": "weather", "lat": -64.55305490216669, "lon": -159.63995619561769, "alt_km": 493.2126158693345, "timestamp": "2025-12-12T18:57:43.775302+00:00", "meta": {"OBJECT_NAME": "TIANMU-1 09", "OBJECT_ID": "2023-101C", "EPOCH": "2025-12-12T06:53:24.469728", "MEAN_MOTION": 15.28075135, "ECCENTRICITY": 0.00067857, "INCLINATION": 97.2825, "RA_OF_ASC_NODE": 35.4584, "ARG_OF_PERICENTER": 85.1, "MEAN_ANOMALY": 275.1014, "EPHEMERIS_TYPE": 0, "CLASSIFICATION_TYPE": "U", "NORAD_CAT_ID": 57401, "ELEMENT_SET_NO": 999, "REV_AT_EPOCH": 13308, "BSTAR": 0.00044202757, "MEAN_MOTION_DOT": 0.00012044, "MEAN_MOTION_DDOT": 0}, "tle": {"line1": "1 57401U 23101C   25346.28708877  .00012044  00000+0  44203-3 0  9997", "line2": "2 57401  97.2825  35.4584 0006785  85.1000 275.1014 15.28075135133083"}}, "geometry": {"type": "Point", "coordinates": [-159.63995619561769, -64.55305490216669]}}, {"type": "Feature", "properties": {"norad_id": 57402, "name": "TIANMU-1 10", "group": "weather", "lat": 56.57825660690567, "lon": 25.61346462995834, "alt_km": 470.9008592048285, "timestamp": "2025-12-12T18:57:43.775312+00:00", "meta": {"OBJECT_NAME": "TIANMU-1 10", "OBJECT_ID": "2023-101D", "EPOCH": "2025-12-12T07:42:40.341600", "MEAN_MOTION": 15.28066385, "ECCENTRICITY": 0.00085488, "INCLINATION": 97.2906, "RA_OF_ASC_NODE": 36.3412, "ARG_OF_PERICENTER": 84.6504, "MEAN_ANOMALY": 275.5711, "EPHEMERIS_TYPE": 0, "CLASSIFICATION_TYPE": "U", "NORAD_CAT_ID": 57402, "ELEMENT_SET_NO": 999, "REV_AT_EPOCH": 13308, "BSTAR": 0.00040548077, "MEAN_MOTION_DOT": 0.00011042, "MEAN_MOTION_DDOT": 0}, "tle": {"line1": "1 57402U 23101D   25346.32130025  .00011042  00000+0  40548-3 0  9992", "line2": "2 57402  97.2906  36.3412 0008548  84.6504 275.5711 15.28066385133081"}}, "geometry": {"type": "Point", "coordinates": [25.61346462995834, 56.57825660690567]}}, {"type": "Feature", "properties": {"norad_id": 57490, "name": "FENGYUN 3F", "group": "weather", "lat": -61.31938653920682, "lon": 71.35333510959583, "alt_km": 833.3096755217503, "timestamp": "2025-12-12T18:57:43.775323+00:00", "meta": {"OBJECT_NAME": "FENGYUN 3F", "OBJECT_ID": "2023-111A", "EPOCH": "2025-12-12T07:25:04.251936", "MEAN_MOTION": 14.1989344, "ECCENTRICITY": 6.788e-05, "INCLINATION": 98.7084, "RA_OF_ASC_NODE": 54.6094, "ARG_OF_PERICENTER": 101.2395, "MEAN_ANOMALY": 258.8858, "EPHEMERIS_TYPE": 0, "CLASSIFICATION_TYPE": "U", "NORAD_CAT_ID": 57490, "ELEMENT_SET_NO": 999, "REV_AT_EPOCH": 12234, "BSTAR": 8.7441019e-05, "MEAN_MOTION_DOT": 1.42e-06, "MEAN_MOTION_DDOT": 0}, "tle": {"line1": "1 57490U 23111A   25346.30907699  .00000142  00000+0  87441-4 0  9990", "line2": "2 57490  98.7084  54.6094 0000678 101.2395 258.8858 14.19893440122342"}}, "geometry": {"type": "Point", "coordinates": [71.35333510959583, -61.31938653920682]}}, {"type": "Feature", "properties": {"norad_id": 58584, "name": "ARKTIKA-M 2", "group": "weather", "lat": -28.03369101889939, "lon": 10.480314488546098, "alt_km": 3803.568794734597, "timestamp": "2025-12-12T18:57:43.775335+00:00", "meta": {"OBJECT_NAME": "ARKTIKA-M 2", "OBJECT_ID": "2023-198A", "EPOCH": "2025-12-08T20:10:13.977120", "MEAN_MOTION": 2.0060476, "ECCENTRICITY": 0.68646991, "INCLINATION": 63.2247, "RA_OF_ASC_NODE": 175.3152, "ARG_OF_PERICENTER": 268.1185, "MEAN_ANOMALY": 18.8267, "EPHEMERIS_TYPE": 0, "CLASSIFICATION_TYPE": "U", "NORAD_CAT_ID": 58584, "ELEMENT_SET_NO": 999, "REV_AT_EPOCH": 1450, "BSTAR": 0, "MEAN_MOTION_DOT": 1.66e-06, "MEAN_MOTION_DDOT": 0}, "tle": {"line1": "1 58584U 23198A   25342.84043955  .00000166  00000+0  00000+0 0  9998", "line2": "2 58584  63.2247 175.3152 6864699 268.1185  18.8267  2.00604760 14506"}}, "geometry": {"type": "Point", "coordinates": [10.480314488546098, -28.03369101889939]}}, {"type": "Feature", "properties": {"norad_id": 58645, "name": "TIANMU-1 11", "group": "weather", "lat": -55.1853128568073, "lon": 175.69849089796233, "alt_km": 497.61787797031684, "timestamp": "2025-12-12T18:57:43.775348+00:00", "meta": {"OBJECT_NAME": "TIANMU-1 11", "OBJECT_ID": "2023-205A", "EPOCH": "2025-12-12T08:28:44.647392", "MEAN_MOTION": 15.24592397, "ECCENTRICITY": 0.00079458, "INCLINATION": 97.3612, "RA_OF_ASC_NODE": 5.9833, "ARG_OF_PERICENTER": 311.9679, "MEAN_ANOMALY": 48.0881, "EPHEMERIS_TYPE": 0, "CLASSIFICATION_TYPE": "U", "NORAD_CAT_ID": 58645, "ELEMENT_SET_NO": 999, "REV_AT_EPOCH": 10903, "BSTAR": 0.00038839472, "MEAN_MOTION_DOT": 9.515e-05, "MEAN_MOTION_DDOT": 0}, "tle": {"line1": "1 58645U 23205A   25346.35329453  .00009515  00000+0  38839-3 0  9997", "line2": "2 58645  97.3612   5.9833 0007945 311.9679  48.0881 15.24592397109036"}}, "geometry": {"type": "Point", "coordinates": [175.69849089796233, -55.1853128568073]}}, {"type": "Feature", "properties": {"norad_id": 58646, "name": "TIANMU-1 12", "group": "weather", "lat": 82.39613876049377, "lon": -69.30443183760839, "alt_km": 488.5700432461008, "timestamp": "2025-12-12T18:57:43.775358+00:00", "meta": {"OBJECT_NAME": "TIANMU-1 12", "OBJECT_ID": "2023-205B", "EPOCH": "2025-12-12T07:32:59.134848", "MEAN_MOTION": 15.24474552, "ECCENTRICITY": 0.00058672, "INCLINATION": 97.36, "RA_OF_ASC_NODE": 5.7509, "ARG_OF_PERICENTER": 293.3682, "MEAN_ANOMALY": 66.6938, "EPHEMERIS_TYPE": 0, "CLASSIFICATION_TYPE": "U", "NORAD_CAT_ID": 58646, "ELEMENT_SET_NO": 999, "REV_AT_EPOCH": 10901, "BSTAR": 0.00038655578, "MEAN_MOTION_DOT": 9.433e-05, "MEAN_MOTION_DDOT": 0}, "tle": {"line1": "1 58646U 23205B   25346.31457332  .00009433  00000+0  38656-3 0  9998", "line2": "2 58646  97.3600   5.7509 0005867 293.3682  66.6938 15.24474552109019"}}, "geometry": {"type": "Point", "coordinates": [-69.30443183760839, 82.39613876049377]}}, {"type": "Feature", "properties": {"norad_id": 58647, "name": "TIANMU-1 13", "group": "weather", "lat": -80.56624154026541, "lon": 135.3203178602384, "alt_km": 495.41627526281627, "timestamp": "2025-12-12T18:57:43.775369+00:00", "meta": {"OBJECT_NAME": "TIANMU-1 13", "OBJECT_ID": "2023-205C", "EPOCH": "2025-12-12T08:21:18.673920", "MEAN_MOTION": 15.24517814, "ECCENTRICITY": 0.00060584, "INCLINATION": 97.3627, "RA_OF_ASC_NODE": 5.9846, "ARG_OF_PERICENTER": 268.8359, "MEAN_ANOMALY": 91.2184, "EPHEMERIS_TYPE": 0, "CLASSIFICATION_TYPE": "U", "NORAD_CAT_ID": 58647, "ELEMENT_SET_NO": 999, "REV_AT_EPOCH": 10901, "BSTAR": 0.00041646726, "MEAN_MOTION_DOT": 0.00010183, "MEAN_MOTION_DDOT": 0}, "tle": {"line1": "1 58647U 23205C   25346.34813280  .00010183  00000+0  41647-3 0  9998", "line2": "2 58647  97.3627   5.9846 0006058 268.8359  91.2184 15.24517814109012"}}, "geometry": {"type": "Point", "coordinates": [135.3203178602384, -80.56624154026541]}}, {"type": "Feature", "properties": {"norad_id": 58648, "name": "TIANMU-1 14", "group": "weather", "lat": -4.88387227418076, "lon": 6.4000809276532395, "alt_km": 495.33695990510114, "timestamp": "2025-12-12T18:57:43.775379+00:00", "meta": {"OBJECT_NAME": "TIANMU-1 14", "OBJECT_ID": "2023-205D", "EPOCH": "2025-12-12T07:57:23.981184", "MEAN_MOTION": 15.24501667, "ECCENTRICITY": 0.00068454, "INCLINATION": 97.356, "RA_OF_ASC_NODE": 5.3174, "ARG_OF_PERICENTER": 274.4611, "MEAN_ANOMALY": 85.5845, "EPHEMERIS_TYPE": 0, "CLASSIFICATION_TYPE": "U", "NORAD_CAT_ID": 58648, "ELEMENT_SET_NO": 999, "REV_AT_EPOCH": 10901, "BSTAR": 0.00041262215, "MEAN_MOTION_DOT": 0.00010085, "MEAN_MOTION_DDOT": 0}, "tle": {"line1": "1 58648U 23205D   25346.33152756  .00010085  00000+0  41262-3 0  9996", "line2": "2 58648  97.3560   5.3174 0006845 274.4611  85.5845 15.24501667109014"}}, "geometry": {"type": "Point", "coordinates": [6.4000809276532395, -4.88387227418076]}}, {"type": "Feature", "properties": {"norad_id": 58660, "name": "TIANMU-1 19", "group": "weather", "lat": -69.34624743355651, "lon": -102.45303452845658, "alt_km": 486.7303400038036, "timestamp": "2025-12-12T18:57:43.775389+00:00", "meta": {"OBJECT_NAME": "TIANMU-1 19", "OBJECT_ID": "2023-208A", "EPOCH": "2025-12-12T06:51:54.736416", "MEAN_MOTION": 15.27837498, "ECCENTRICITY": 0.00040897, "INCLINATION": 97.4384, "RA_OF_ASC_NODE": 97.3237, "ARG_OF_PERICENTER": 255.1315, "MEAN_ANOMALY": 104.9472, "EPHEMERIS_TYPE": 0, "CLASSIFICATION_TYPE": "U", "NORAD_CAT_ID": 58660, "ELEMENT_SET_NO": 999, "REV_AT_EPOCH": 10875, "BSTAR": 0.00050071693, "MEAN_MOTION_DOT": 0.00013549, "MEAN_MOTION_DDOT": 0}, "tle": {"line1": "1 58660U 23208A   25346.28605019  .00013549  00000+0  50072-3 0  9999", "line2": "2 58660  97.4384  97.3237 0004089 255.1315 104.9472 15.27837498108758"}}, "geometry": {"type": "Point", "coordinates": [-102.45303452845658, -69.34624743355651]}}, {"type": "Feature", "properties": {"norad_id": 58661, "name": "TIANMU-1 20", "group": "weather", "lat": -34.621870612437924, "lon": 103.44521158345802, "alt_km": 482.75140876266505, "timestamp": "2025-12-12T18:57:43.775399+00:00", "meta": {"OBJECT_NAME": "TIANMU-1 20", "OBJECT_ID": "2023-208B", "EPOCH": "2025-12-12T06:32:58.843392", "MEAN_MOTION": 15.29027867, "ECCENTRICITY": 0.00063217, "INCLINATION": 97.4321, "RA_OF_ASC_NODE": 97.7578, "ARG_OF_PERICENTER": 268.0498, "MEAN_ANOMALY": 92.0018, "EPHEMERIS_TYPE": 0, "CLASSIFICATION_TYPE": "U", "NORAD_CAT_ID": 58661, "ELEMENT_SET_NO": 999, "REV_AT_EPOCH": 10882, "BSTAR": 0.00050781795, "MEAN_MOTION_DOT": 0.00014258, "MEAN_MOTION_DDOT": 0}, "tle": {"line1": "1 58661U 23208B   25346.27290328  .00014258  00000+0  50782-3 0  9998", "line2": "2 58661  97.4321  97.7578 0006321 268.0498  92.0018 15.29027867108822"}}, "geometry": {"type": "Point", "coordinates": [103.44521158345802, -34.621870612437924]}}]}